[
  {
    "OBJECT_NAME": "STARLINK-1790",
    "OBJECT_ID": "20073X",
    "EPOCH": "2025-11-11T06:15:06.622848",
    "MEAN_MOTION": 15.395143,
    "ECCENTRICITY": 0.000223,
    "INCLINATION": 53.0564,
    "RA_OF_ASC_NODE": 50.5329,
    "ARG_OF_PERICENTER": 7.3369,
    "MEAN_ANOMALY": 352.7667,
    "EPHEMERIS_TYPE": 0,
    "CLASSIFICATION_TYPE": "U",
    "NORAD_CAT_ID": 46691,
    "ELEMENT_SET_NO": 999,
    "REV_AT_EPOCH": 27931,
    "BSTAR": 0.0033068,
    "MEAN_MOTION_DOT": 0.00133762,
    "MEAN_MOTION_DDOT": 0.0,
    "TLE_LINE1": "1 46691U 20073X   25315.26049332  .00133762  00000+0  33068-2 0  9996",
    "TLE_LINE2": "2 46691  53.0564  50.5329 0002230   7.3369 352.7667 15.39514300279319",
    "COMMENT": "Grouped by shell and plane from TLE"
  },
  {
    "OBJECT_NAME": "STARLINK-1797",
    "OBJECT_ID": "20073AE",
    "EPOCH": "2025-11-11T08:00:03.000384",
    "MEAN_MOTION": 15.32210033,
    "ECCENTRICITY": 0.0003166,
    "INCLINATION": 53.0553,
    "RA_OF_ASC_NODE": 50.5554,
    "ARG_OF_PERICENTER": 351.3362,
    "MEAN_ANOMALY": 22.7853,
    "EPHEMERIS_TYPE": 0,
    "CLASSIFICATION_TYPE": "U",
    "NORAD_CAT_ID": 46698,
    "ELEMENT_SET_NO": 999,
    "REV_AT_EPOCH": 570,
    "BSTAR": 0.0028241,
    "MEAN_MOTION_DOT": 0.00089768,
    "MEAN_MOTION_DDOT": 0.0,
    "TLE_LINE1": "1 46698U 20073AE  25315.33336806  .00089768  00000+0  28241-2 0  9999",
    "TLE_LINE2": "2 46698  53.0553  50.5554 0003166 351.3362  22.7853 15.32210033  5708",
    "COMMENT": "Grouped by shell and plane from TLE"
  },
  {
    "OBJECT_NAME": "STARLINK-1816",
    "OBJECT_ID": "20073AW",
    "EPOCH": "2025-11-11T07:22:55.947072",
    "MEAN_MOTION": 15.38549138,
    "ECCENTRICITY": 0.0001985,
    "INCLINATION": 53.0565,
    "RA_OF_ASC_NODE": 50.3063,
    "ARG_OF_PERICENTER": 43.945,
    "MEAN_ANOMALY": 316.1711,
    "EPHEMERIS_TYPE": 0,
    "CLASSIFICATION_TYPE": "U",
    "NORAD_CAT_ID": 46714,
    "ELEMENT_SET_NO": 999,
    "REV_AT_EPOCH": 27932,
    "BSTAR": 0.0033345000000000002,
    "MEAN_MOTION_DOT": 0.00130629,
    "MEAN_MOTION_DDOT": 0.0,
    "TLE_LINE1": "1 46714U 20073AW  25315.30759198  .00130629  00000+0  33345-2 0  9992",
    "TLE_LINE2": "2 46714  53.0565  50.3063 0001985  43.9450 316.1711 15.38549138279323",
    "COMMENT": "Grouped by shell and plane from TLE"
  },
  {
    "OBJECT_NAME": "STARLINK-3284",
    "OBJECT_ID": "21125Y",
    "EPOCH": "2025-11-11T08:00:03.000384",
    "MEAN_MOTION": 15.48897431,
    "ECCENTRICITY": 0.0001009,
    "INCLINATION": 53.2175,
    "RA_OF_ASC_NODE": 52.0223,
    "ARG_OF_PERICENTER": 83.9938,
    "MEAN_ANOMALY": 169.6979,
    "EPHEMERIS_TYPE": 0,
    "CLASSIFICATION_TYPE": "U",
    "NORAD_CAT_ID": 50178,
    "ELEMENT_SET_NO": 999,
    "REV_AT_EPOCH": 587,
    "BSTAR": 0.0060114,
    "MEAN_MOTION_DOT": 0.0034402,
    "MEAN_MOTION_DDOT": 0.0,
    "TLE_LINE1": "1 50178U 21125Y   25315.33336806  .00344020  00000+0  60114-2 0  9996",
    "TLE_LINE2": "2 50178  53.2175  52.0223 0001009  83.9938 169.6979 15.48897431  5877",
    "COMMENT": "Grouped by shell and plane from TLE"
  },
  {
    "OBJECT_NAME": "STARLINK-4063",
    "OBJECT_ID": "22083A",
    "EPOCH": "2025-10-24T22:00:03.998880",
    "MEAN_MOTION": 15.52103554,
    "ECCENTRICITY": 0.0001493,
    "INCLINATION": 53.2172,
    "RA_OF_ASC_NODE": 59.5833,
    "ARG_OF_PERICENTER": 47.0642,
    "MEAN_ANOMALY": 98.137,
    "EPHEMERIS_TYPE": 0,
    "CLASSIFICATION_TYPE": "U",
    "NORAD_CAT_ID": 53132,
    "ELEMENT_SET_NO": 999,
    "REV_AT_EPOCH": 575,
    "BSTAR": 0.0,
    "MEAN_MOTION_DOT": -0.00014645,
    "MEAN_MOTION_DDOT": 0.0,
    "TLE_LINE1": "1 53132U 22083A   25297.91671295 -.00014645  00000+0 -23129-3 0  9995",
    "TLE_LINE2": "2 53132  53.2172  59.5833 0001493  47.0642  98.1370 15.52103554  5755",
    "COMMENT": "Grouped by shell and plane from TLE"
  },
  {
    "OBJECT_NAME": "STARLINK-30254",
    "OBJECT_ID": "23115N",
    "EPOCH": "2025-11-11T07:09:48.494880",
    "MEAN_MOTION": 15.27581383,
    "ECCENTRICITY": 0.0001859,
    "INCLINATION": 43.0025,
    "RA_OF_ASC_NODE": 51.7697,
    "ARG_OF_PERICENTER": 270.6571,
    "MEAN_ANOMALY": 89.4068,
    "EPHEMERIS_TYPE": 0,
    "CLASSIFICATION_TYPE": "U",
    "NORAD_CAT_ID": 57533,
    "ELEMENT_SET_NO": 999,
    "REV_AT_EPOCH": 12725,
    "BSTAR": 5.9341999999999995e-05,
    "MEAN_MOTION_DOT": 1.371e-05,
    "MEAN_MOTION_DDOT": 0.0,
    "TLE_LINE1": "1 57533U 23115N   25315.29847795  .00001371  00000+0  59342-4 0  9990",
    "TLE_LINE2": "2 57533  43.0025  51.7697 0001859 270.6571  89.4068 15.27581383127250",
    "COMMENT": "Grouped by shell and plane from TLE"
  },
  {
    "OBJECT_NAME": "STARLINK-30513",
    "OBJECT_ID": "23158W",
    "EPOCH": "2025-11-11T07:30:04.387392",
    "MEAN_MOTION": 15.32465181,
    "ECCENTRICITY": 0.0005879,
    "INCLINATION": 42.9996,
    "RA_OF_ASC_NODE": 59.1497,
    "ARG_OF_PERICENTER": 2.3928,
    "MEAN_ANOMALY": 357.6953,
    "EPHEMERIS_TYPE": 0,
    "CLASSIFICATION_TYPE": "U",
    "NORAD_CAT_ID": 58071,
    "ELEMENT_SET_NO": 999,
    "REV_AT_EPOCH": 11868,
    "BSTAR": 0.0015563,
    "MEAN_MOTION_DOT": 0.000499,
    "MEAN_MOTION_DDOT": 0.0,
    "TLE_LINE1": "1 58071U 23158W   25315.31255078  .00049900  00000+0  15563-2 0  9990",
    "TLE_LINE2": "2 58071  42.9996  59.1497 0005879   2.3928 357.6953 15.32465181118688",
    "COMMENT": "Grouped by shell and plane from TLE"
  },
  {
    "OBJECT_NAME": "STARLINK-31029",
    "OBJECT_ID": "24002H",
    "EPOCH": "2025-11-11T07:29:44.348640",
    "MEAN_MOTION": 15.30202946,
    "ECCENTRICITY": 0.0001295,
    "INCLINATION": 53.1624,
    "RA_OF_ASC_NODE": 59.6192,
    "ARG_OF_PERICENTER": 60.3891,
    "MEAN_ANOMALY": 299.7239,
    "EPHEMERIS_TYPE": 0,
    "CLASSIFICATION_TYPE": "U",
    "NORAD_CAT_ID": 58712,
    "ELEMENT_SET_NO": 999,
    "REV_AT_EPOCH": 10389,
    "BSTAR": 7.8553e-05,
    "MEAN_MOTION_DOT": 1.968e-05,
    "MEAN_MOTION_DDOT": 0.0,
    "TLE_LINE1": "1 58712U 24002H   25315.31231885  .00001968  00000+0  78553-4 0  9993",
    "TLE_LINE2": "2 58712  53.1624  59.6192 0001295  60.3891 299.7239 15.30202946103896",
    "COMMENT": "Grouped by shell and plane from TLE"
  },
  {
    "OBJECT_NAME": "STARLINK-30973",
    "OBJECT_ID": "24002J",
    "EPOCH": "2025-11-11T07:38:51.122400",
    "MEAN_MOTION": 15.30201256,
    "ECCENTRICITY": 0.0001072,
    "INCLINATION": 53.1603,
    "RA_OF_ASC_NODE": 59.6552,
    "ARG_OF_PERICENTER": 74.3996,
    "MEAN_ANOMALY": 285.7123,
    "EPHEMERIS_TYPE": 0,
    "CLASSIFICATION_TYPE": "U",
    "NORAD_CAT_ID": 58713,
    "ELEMENT_SET_NO": 999,
    "REV_AT_EPOCH": 10389,
    "BSTAR": 0.00012305,
    "MEAN_MOTION_DOT": 3.287e-05,
    "MEAN_MOTION_DDOT": 0.0,
    "TLE_LINE1": "1 58713U 24002J   25315.31864725  .00003287  00000+0  12305-3 0  9997",
    "TLE_LINE2": "2 58713  53.1603  59.6552 0001072  74.3996 285.7123 15.30201256103898",
    "COMMENT": "Grouped by shell and plane from TLE"
  },
  {
    "OBJECT_NAME": "STARLINK-31100",
    "OBJECT_ID": "24002K",
    "EPOCH": "2025-11-11T06:09:21.629376",
    "MEAN_MOTION": 15.30209355,
    "ECCENTRICITY": 0.0001264,
    "INCLINATION": 53.1605,
    "RA_OF_ASC_NODE": 59.9778,
    "ARG_OF_PERICENTER": 93.6557,
    "MEAN_ANOMALY": 266.4588,
    "EPHEMERIS_TYPE": 0,
    "CLASSIFICATION_TYPE": "U",
    "NORAD_CAT_ID": 58714,
    "ELEMENT_SET_NO": 999,
    "REV_AT_EPOCH": 10388,
    "BSTAR": 0.0,
    "MEAN_MOTION_DOT": -5.36e-06,
    "MEAN_MOTION_DDOT": 0.0,
    "TLE_LINE1": "1 58714U 24002K   25315.25650034 -.00000536  00000+0 -59626-5 0  9992",
    "TLE_LINE2": "2 58714  53.1605  59.9778 0001264  93.6557 266.4588 15.30209355103882",
    "COMMENT": "Grouped by shell and plane from TLE"
  },
  {
    "OBJECT_NAME": "STARLINK-31098",
    "OBJECT_ID": "24002M",
    "EPOCH": "2025-11-11T07:46:26.929920",
    "MEAN_MOTION": 15.30207689,
    "ECCENTRICITY": 0.0001176,
    "INCLINATION": 53.161,
    "RA_OF_ASC_NODE": 59.6869,
    "ARG_OF_PERICENTER": 89.5774,
    "MEAN_ANOMALY": 270.5361,
    "EPHEMERIS_TYPE": 0,
    "CLASSIFICATION_TYPE": "U",
    "NORAD_CAT_ID": 58716,
    "ELEMENT_SET_NO": 999,
    "REV_AT_EPOCH": 10389,
    "BSTAR": 7.8677e-05,
    "MEAN_MOTION_DOT": 1.972e-05,
    "MEAN_MOTION_DDOT": 0.0,
    "TLE_LINE1": "1 58716U 24002M   25315.32392280  .00001972  00000+0  78677-4 0  9997",
    "TLE_LINE2": "2 58716  53.1610  59.6869 0001176  89.5774 270.5361 15.30207689103899",
    "COMMENT": "Grouped by shell and plane from TLE"
  },
  {
    "OBJECT_NAME": "STARLINK-31027",
    "OBJECT_ID": "24002R",
    "EPOCH": "2025-11-11T07:05:26.079936",
    "MEAN_MOTION": 15.30171675,
    "ECCENTRICITY": 0.0001393,
    "INCLINATION": 53.1611,
    "RA_OF_ASC_NODE": 59.5127,
    "ARG_OF_PERICENTER": 77.089,
    "MEAN_ANOMALY": 283.0267,
    "EPHEMERIS_TYPE": 0,
    "CLASSIFICATION_TYPE": "U",
    "NORAD_CAT_ID": 58720,
    "ELEMENT_SET_NO": 999,
    "REV_AT_EPOCH": 10389,
    "BSTAR": 0.00022128,
    "MEAN_MOTION_DOT": 6.194e-05,
    "MEAN_MOTION_DDOT": 0.0,
    "TLE_LINE1": "1 58720U 24002R   25315.29544074  .00006194  00000+0  22128-3 0  9998",
    "TLE_LINE2": "2 58720  53.1611  59.5127 0001393  77.0890 283.0267 15.30171675103892",
    "COMMENT": "Grouped by shell and plane from TLE"
  },
  {
    "OBJECT_NAME": "STARLINK-30972",
    "OBJECT_ID": "24002S",
    "EPOCH": "2025-11-11T07:40:22.703808",
    "MEAN_MOTION": 15.30195544,
    "ECCENTRICITY": 9.56e-05,
    "INCLINATION": 53.161,
    "RA_OF_ASC_NODE": 59.6581,
    "ARG_OF_PERICENTER": 98.3459,
    "MEAN_ANOMALY": 261.7651,
    "EPHEMERIS_TYPE": 0,
    "CLASSIFICATION_TYPE": "U",
    "NORAD_CAT_ID": 58721,
    "ELEMENT_SET_NO": 999,
    "REV_AT_EPOCH": 10389,
    "BSTAR": 0.00013181,
    "MEAN_MOTION_DOT": 3.546e-05,
    "MEAN_MOTION_DDOT": 0.0,
    "TLE_LINE1": "1 58721U 24002S   25315.31970722  .00003546  00000+0  13181-3 0  9992",
    "TLE_LINE2": "2 58721  53.1610  59.6581 0000956  98.3459 261.7651 15.30195544103899",
    "COMMENT": "Grouped by shell and plane from TLE"
  }
]